{"type": "FeatureCollection", "features": [ {"type": "Feature", "properties": {"norad_id": 37834, "name": "INTELSAT 18 (IS-18)", "group": "intelsat", "lat": 0.016125455975654415, "lon": 15.911818400237015, "alt_km": 35785.49697083302, "timestamp": "2025-12-26T06:43:29.174591+00:00", "meta": {"OBJECT_NAME": "INTELSAT 18 (IS-18)", "OBJECT_ID": "2011-056A", "EPOCH": "2025-12-25T13:55:22.248768", "MEAN_MOTION": 1.00271778, "ECCENTRICITY": 0.0001891, "INCLINATION": 0.0194, "RA_OF_ASC_NODE": 293.2532, "ARG_OF_PERICENTER": 356.5598, "MEAN_ANOMALY": 193.3649, "EPHEMERIS_TYPE": 0, "CLASSIFICATION_TYPE": "U", "NORAD_CAT_ID": 37834, "ELEMENT_SET_NO": 999, "REV_AT_EPOCH": 5207, "BSTAR": 0, "MEAN_MOTION_DOT": 7.4e-07, "MEAN_MOTION_DDOT": 0}, "tle": {"line1": "1 37834U 11056A   25359.58011862  .00000074  00000+0  00000+0 0  9992", "line2": "2 37834   0.0194 293.2532 0001891 356.5598 193.3649  1.00271778 52079"}}, "geometry": {"type": "Point", "coordinates": [15.911818400237015, 0.016125455975654415]}}, {"type": "Feature", "properties": {"norad_id": 38098, "name": "INTELSAT 22 (IS-22)", "group": "intelsat", "lat": -0.03553834167197693, "lon": -92.03491669550523, "alt_km": 35779.343291474754, "timestamp": "2025-12-26T06:43:29.174603+00:00", "meta": {"OBJECT_NAME": "INTELSAT 22 (IS-22)", "OBJECT_ID": "2012-011A", "EPOCH": "2025-12-25T21:37:38.688672", "MEAN_MOTION": 1.00270585, "ECCENTRICITY": 0.00019502, "INCLINATION": 0.0313, "RA_OF_ASC_NODE": 50.2189, "ARG_OF_PERICENTER": 248.7882, "MEAN_ANOMALY": 192.1441, "EPHEMERIS_TYPE": 0, "CLASSIFICATION_TYPE": "U", "NORAD_CAT_ID": 38098, "ELEMENT_SET_NO": 999, "REV_AT_EPOCH": 545, "BSTAR": 0, "MEAN_MOTION_DOT": 0, "MEAN_MOTION_DDOT": 0}, "tle": {"line1": "1 38098U 12011A   25359.90114223  .00000000  00000+0  00000+0 0  9997", "line2": "2 38098   0.0313  50.2189 0001950 248.7882 192.1441  1.00270585  5450"}}, "geometry": {"type": "Point", "coordinates": [-92.03491669550523, -0.03553834167197693]}}, {"type": "Feature", "properties": {"norad_id": 38356, "name": "INTELSAT 19 (IS-19)", "group": "intelsat", "lat": 0.005719152221583391, "lon": 1.9351785577527363, "alt_km": 35786.12988876831, "timestamp": "2025-12-26T06:43:29.174616+00:00", "meta": {"OBJECT_NAME": "INTELSAT 19 (IS-19)", "OBJECT_ID": "2012-030A", "EPOCH": "2025-12-25T13:02:38.686848", "MEAN_MOTION": 1.00272036, "ECCENTRICITY": 0.0002961, "INCLINATION": 0.0106, "RA_OF_ASC_NODE": 331.8116, "ARG_OF_PERICENTER": 299.4654, "MEAN_ANOMALY": 184.6938, "EPHEMERIS_TYPE": 0, "CLASSIFICATION_TYPE": "U", "NORAD_CAT_ID": 38356, "ELEMENT_SET_NO": 999, "REV_AT_EPOCH": 4871, "BSTAR": 0, "MEAN_MOTION_DOT": -3.5e-07, "MEAN_MOTION_DDOT": 0}, "tle": {"line1": "1 38356U 12030A   25359.54350332 -.00000035  00000+0  00000+0 0  9997", "line2": "2 38356   0.0106 331.8116 0002961 299.4654 184.6938  1.00272036 48714"}}, "geometry": {"type": "Point", "coordinates": [1.9351785577527363, 0.005719152221583391]}}, {"type": "Feature", "properties": {"norad_id": 38740, "name": "INTELSAT 20 (IS-20)", "group": "intelsat", "lat": -0.018028911711019727, "lon": -95.59142457308661, "alt_km": 35790.279372866025, "timestamp": "2025-12-26T06:43:29.174628+00:00", "meta": {"OBJECT_NAME": "INTELSAT 20 (IS-20)", "OBJECT_ID": "2012-043A", "EPOCH": "2025-12-25T21:52:38.696736", "MEAN_MOTION": 1.00262156, "ECCENTRICITY": 0.00025061, "INCLINATION": 0.0123, "RA_OF_ASC_NODE": 61.0797, "ARG_OF_PERICENTER": 105.2286, "MEAN_ANOMALY": 325.018, "EPHEMERIS_TYPE": 0, "CLASSIFICATION_TYPE": "U", "NORAD_CAT_ID": 38740, "ELEMENT_SET_NO": 999, "REV_AT_EPOCH": 4901, "BSTAR": 0, "MEAN_MOTION_DOT": -1e-08, "MEAN_MOTION_DDOT": 0}, "tle": {"line1": "1 38740U 12043A   25359.91155899 -.00000001  00000+0  00000+0 0  9993", "line2": "2 38740   0.0123  61.0797 0002506 105.2286 325.0180  1.00262156 49013"}}, "geometry": {"type": "Point", "coordinates": [-95.59142457308661, -0.018028911711019727]}}, {"type": "Feature", "properties": {"norad_id": 38749, "name": "INTELSAT 21 (IS-21)", "group": "intelsat", "lat": 0.01519549218707758, "lon": 137.89239488906344, "alt_km": 35790.59184381333, "timestamp": "2025-12-26T06:43:29.174640+00:00", "meta": {"OBJECT_NAME": "INTELSAT 21 (IS-21)", "OBJECT_ID": "2012-045A", "EPOCH": "2025-12-25T21:21:05.325408", "MEAN_MOTION": 1.00272118, "ECCENTRICITY": 0.00017292, "INCLINATION": 0.0171, "RA_OF_ASC_NODE": 331.8978, "ARG_OF_PERICENTER": 294.45, "MEAN_ANOMALY": 90.5825, "EPHEMERIS_TYPE": 0, "CLASSIFICATION_TYPE": "U", "NORAD_CAT_ID": 38749, "ELEMENT_SET_NO": 999, "REV_AT_EPOCH": 4878, "BSTAR": 0, "MEAN_MOTION_DOT": -2.63e-06, "MEAN_MOTION_DDOT": 0}, "tle": {"line1": "1 38749U 12045A   25359.88964497 -.00000263  00000+0  00000+0 0  9992", "line2": "2 38749   0.0171 331.8978 0001729 294.4500  90.5825  1.00272118 48782"}}, "geometry": {"type": "Point", "coordinates": [137.89239488906344, 0.01519549218707758]}}, {"type": "Feature", "properties": {"norad_id": 38867, "name": "INTELSAT 23 (IS-23)", "group": "intelsat", "lat": 0.02487285779989217, "lon": 142.89913237993215, "alt_km": 35788.05921790045, "timestamp": "2025-12-26T06:43:29.174652+00:00", "meta": {"OBJECT_NAME": "INTELSAT 23 (IS-23)", "OBJECT_ID": "2012-057A", "EPOCH": "2025-12-25T21:22:27.693120", "MEAN_MOTION": 1.0027337, "ECCENTRICITY": 5.921e-05, "INCLINATION": 0.0157, "RA_OF_ASC_NODE": 75.2996, "ARG_OF_PERICENTER": 229.7942, "MEAN_ANOMALY": 57.1721, "EPHEMERIS_TYPE": 0, "CLASSIFICATION_TYPE": "U", "NORAD_CAT_ID": 38867, "ELEMENT_SET_NO": 999, "REV_AT_EPOCH": 4821, "BSTAR": 0, "MEAN_MOTION_DOT": -2.63e-06, "MEAN_MOTION_DDOT": 0}, "tle": {"line1": "1 38867U 12057A   25359.89059830 -.00000263  00000+0  00000+0 0  9993", "line2": "2 38867   0.0157  75.2996 0000592 229.7942  57.1721  1.00273370 48217"}}, "geometry": {"type": "Point", "coordinates": [142.89913237993215, 0.02487285779989217]}}, {"type": "Feature", "properties": {"norad_id": 39360, "name": "FM-6", "group": "intelsat", "lat": 0.014196411566629931, "lon": 79.6890969141018, "alt_km": 35788.034860745094, "timestamp": "2025-12-26T06:43:29.174663+00:00", "meta": {"OBJECT_NAME": "FM-6", "OBJECT_ID": "2013-058A", "EPOCH": "2025-12-25T07:36:38.659104", "MEAN_MOTION": 1.00272197, "ECCENTRICITY": 0.0002612, "INCLINATION": 0.0189, "RA_OF_ASC_NODE": 76.11, "ARG_OF_PERICENTER": 104.6769, "MEAN_ANOMALY": 271.2768, "EPHEMERIS_TYPE": 0, "CLASSIFICATION_TYPE": "U", "NORAD_CAT_ID": 39360, "ELEMENT_SET_NO": 999, "REV_AT_EPOCH": 4433, "BSTAR": 0, "MEAN_MOTION_DOT": 4e-08, "MEAN_MOTION_DDOT": 0}, "tle": {"line1": "1 39360U 13058A   25359.31711411  .00000004  00000+0  00000+0 0  9993", "line2": "2 39360   0.0189  76.1100 0002612 104.6769 271.2768  1.00272197 44336"}}, "geometry": {"type": "Point", "coordinates": [79.6890969141018, 0.014196411566629931]}}, {"type": "Feature", "properties": {"norad_id": 40271, "name": "INTELSAT 30 (IS-30)", "group": "intelsat", "lat": 0.03358912981471798, "lon": 100.82538646565285, "alt_km": 35780.43121849904, "timestamp": "2025-12-26T06:43:29.174675+00:00", "meta": {"OBJECT_NAME": "INTELSAT 30 (IS-30)", "OBJECT_ID": "2014-062A", "EPOCH": "2025-12-24T22:55:07.150368", "MEAN_MOTION": 1.00269678, "ECCENTRICITY": 0.00015108, "INCLINATION": 0.0145, "RA_OF_ASC_NODE": 31.8875, "ARG_OF_PERICENTER": 58.3804, "MEAN_ANOMALY": 252.1734, "EPHEMERIS_TYPE": 0, "CLASSIFICATION_TYPE": "U", "NORAD_CAT_ID": 40271, "ELEMENT_SET_NO": 999, "REV_AT_EPOCH": 504, "BSTAR": 0, "MEAN_MOTION_DOT": -1.29e-06, "MEAN_MOTION_DDOT": 0}, "tle": {"line1": "1 40271U 14062A   25358.95494387 -.00000129  00000+0  00000+0 0  9990", "line2": "2 40271   0.0145  31.8875 0001510  58.3804 252.1734  1.00269678  5045"}}, "geometry": {"type": "Point", "coordinates": [100.82538646565285, 0.03358912981471798]}}, {"type": "Feature", "properties": {"norad_id": 40333, "name": "DIRECTV 14", "group": "intelsat", "lat": 0.032703888595603366, "lon": 96.72982480640765, "alt_km": 35785.09322084586, "timestamp": "2025-12-26T06:43:29.174687+00:00", "meta": {"OBJECT_NAME": "DIRECTV 14", "OBJECT_ID": "2014-078B", "EPOCH": "2025-12-24T12:37:43.773312", "MEAN_MOTION": 1.00279829, "ECCENTRICITY": 3.885e-05, "INCLINATION": 0.0184, "RA_OF_ASC_NODE": 340.4706, "ARG_OF_PERICENTER": 254.7884, "MEAN_ANOMALY": 308.2619, "EPHEMERIS_TYPE": 0, "CLASSIFICATION_TYPE": "U", "NORAD_CAT_ID": 40333, "ELEMENT_SET_NO": 999, "REV_AT_EPOCH": 4029, "BSTAR": 0, "MEAN_MOTION_DOT": -1.06e-06, "MEAN_MOTION_DDOT": 0}, "tle": {"line1": "1 40333U 14078B   25358.52620108 -.00000106  00000+0  00000+0 0  9996", "line2": "2 40333   0.0184 340.4706 0000388 254.7884 308.2619  1.00279829 40291"}}, "geometry": {"type": "Point", "coordinates": [96.72982480640765, 0.032703888595603366]}}, {"type": "Feature", "properties": {"norad_id": 40663, "name": "DIRECTV 15", "group": "intelsat", "lat": 0.035675407259534844, "lon": 92.98255133109348, "alt_km": 35786.94137064359, "timestamp": "2025-12-26T06:43:29.174699+00:00", "meta": {"OBJECT_NAME": "DIRECTV 15", "OBJECT_ID": "2015-026A", "EPOCH": "2025-12-25T16:00:02.811744", "MEAN_MOTION": 1.00267803, "ECCENTRICITY": 3.367e-05, "INCLINATION": 0.018, "RA_OF_ASC_NODE": 26.1792, "ARG_OF_PERICENTER": 146.2748, "MEAN_ANOMALY": 59.0835, "EPHEMERIS_TYPE": 0, "CLASSIFICATION_TYPE": "U", "NORAD_CAT_ID": 40663, "ELEMENT_SET_NO": 999, "REV_AT_EPOCH": 3872, "BSTAR": 0, "MEAN_MOTION_DOT": -8e-07, "MEAN_MOTION_DDOT": 0}, "tle": {"line1": "1 40663U 15026A   25359.66669921 -.00000080  00000+0  00000+0 0  9999", "line2": "2 40663   0.0180  26.1792 0000336 146.2748  59.0835  1.00267803 38728"}}, "geometry": {"type": "Point", "coordinates": [92.98255133109348, 0.035675407259534844]}}]}